[{"OBJECT_NAME":"STARLINK-31786","OBJECT_ID":"2024-091U","EPOCH":"2026-03-09T07:26:11.818464","MEAN_MOTION":15.30193136,"ECCENTRICITY":0.00012428,"INCLINATION":53.1616,"RA_OF_ASC_NODE":28.8329,"ARG_OF_PERICENTER":65.6033,"MEAN_ANOMALY":294.5097,"EPHEMERIS_TYPE":0,"CLASSIFICATION_TYPE":"U","NORAD_CAT_ID":59771,"ELEMENT_SET_NO":999,"REV_AT_EPOCH":10294,"BSTAR":-6.725755e-6,"MEAN_MOTION_DOT":-5.58e-6,"MEAN_MOTION_DDOT":0},{"OBJECT_NAME":"SIMSAT 2","OBJECT_ID":"2000-026B","EPOCH":"2026-03-09T20:25:01.673184","MEAN_MOTION":15.29036787,"ECCENTRICITY":0.00037035,"INCLINATION":86.3514,"RA_OF_ASC_NODE":176.4271,"ARG_OF_PERICENTER":287.9875,"MEAN_ANOMALY":72.0969,"EPHEMERIS_TYPE":0,"CLASSIFICATION_TYPE":"U","NORAD_CAT_ID":26366,"ELEMENT_SET_NO":999,"REV_AT_EPOCH":42803,"BSTAR":0.00013465771,"MEAN_MOTION_DOT":3.833e-5,"MEAN_MOTION_DDOT":0}]
